[
  {
    "name": "PLEIADES NEO 3",
    "line1": "1 48268U 21034A   25339.29990288 -.00000065  00000+0 -16246-5 0  9993",
    "line2": "2 48268  97.8948  51.8474 0001245  95.0794 265.0561 14.81670391248942",
    "catNr": 48268
  },
  {
    "name": "PLEIADES NEO 4",
    "line1": "1 49070U 21073E   25339.33365720 -.00000030  00000+0  28577-5 0  9991",
    "line2": "2 49070  97.8947  51.8766 0001347  97.5499 262.5867 14.81673096232667",
    "catNr": 49070
  }
]